$$SOE
2460154.500000000, A.D. 2023-Jul-29 00:00:00.0000, 1.532347247481299E+08, 4.594075152531869E+08, -6.424532551523152E+07,
2460161.500000000, A.D. 2023-Aug-05 00:00:00.0000, 1.436230497736677E+08, 4.622052258655921E+08, -6.627180996583311E+07,
2460168.500000000, A.D. 2023-Aug-12 00:00:00.0000, 1.339516810664176E+08, 4.648104350250953E+08, -6.827067947387730E+07,
2460175.500000000, A.D. 2023-Aug-19 00:00:00.0000, 1.242246397271706E+08, 4.672220574100894E+08, -7.024110136963081E+07,
2460182.500000000, A.D. 2023-Aug-26 00:00:00.0000, 1.144459736449544E+08, 4.694390998830754E+08, -7.218225669318902E+07,
2460189.500000000, A.D. 2023-Sep-02 00:00:00.0000, 1.046197550260833E+08, 4.714606620774364E+08, -7.409334067906791E+07,
2460196.500000000, A.D. 2023-Sep-09 00:00:00.0000, 9.475007791866431E+07, 4.732859367937329E+08, -7.597356323993967E+07,
2460203.500000000, A.D. 2023-Sep-16 00:00:00.0000, 8.484105590380096E+07, 4.749142101472040E+08, -7.782214946910328E+07,
2460210.500000000, A.D. 2023-Sep-23 00:00:00.0000, 7.489682037271978E+07, 4.763448617535120E+08, -7.963834017600036E+07,
2460217.500000000, A.D. 2023-Sep-30 00:00:00.0000, 6.492151905366614E+07, 4.775773661442436E+08, -8.142139232614835E+07,
2460224.500000000, A.D. 2023-Oct-07 00:00:00.0000, 5.491931243889765E+07, 4.786112948687479E+08, -8.317057921344605E+07,
2460231.500000000, A.D. 2023-Oct-14 00:00:00.0000, 4.489436915400974E+07, 4.794463159676385E+08, -8.488519072976513E+07,
2460238.500000000, A.D. 2023-Oct-21 00:00:00.0000, 3.485086350046021E+07, 4.800821924223650E+08, -8.656453389674392E+07,
2460245.500000000, A.D. 2023-Oct-28 00:00:00.0000, 2.479297375146863E+07, 4.805187818421834E+08, -8.820793334438340E+07,
2460252.500000000, A.D. 2023-Nov-04 00:00:00.0000, 1.472487995518313E+07, 4.807560366169605E+08, -8.981473168369466E+07,
2460259.500000000, A.D. 2023-Nov-11 00:00:00.0000, 4.650761425285410E+06, 4.807940039348542E+08, -9.138428983738385E+07,
2460266.500000000, A.D. 2023-Nov-18 00:00:00.0000, -5.425205859536090E+06, 4.806328256004680E+08, -9.291598735287060E+07,
2460273.500000000, A.D. 2023-Nov-25 00:00:00.0000, -1.549885187267901E+07, 4.802727376771189E+08, -9.440922270184503E+07,
2460280.500000000, A.D. 2023-Dec-02 00:00:00.0000, -2.556601514298213E+07, 4.797140699440633E+08, -9.586341356974353E+07,
2460287.500000000, A.D. 2023-Dec-09 00:00:00.0000, -3.562254526371245E+07, 4.789572451121153E+08, -9.727799714727585E+07,
2460294.500000000, A.D. 2023-Dec-16 00:00:00.0000, -4.566430501638422E+07, 4.780027778122763E+08, -9.865243044953421E+07,
2460301.500000000, A.D. 2023-Dec-23 00:00:00.0000, -5.568717175775030E+07, 4.768512740466337E+08, -9.998619063862610E+07,
2460308.500000000, A.D. 2023-Dec-30 00:00:00.0000, -6.568703940671536E+07, 4.755034321526002E+08, -1.012787751414053E+08,
2460315.500000000, A.D. 2024-Jan-06 00:00:00.0000, -7.565982279970583E+07, 4.739600429198761E+08, -1.025297015921734E+08,
2460322.500000000, A.D. 2024-Jan-13 00:00:00.0000, -8.560146124009514E+07, 4.722219870523318E+08, -1.037385080379491E+08,
2460329.500000000, A.D. 2024-Jan-20 00:00:00.0000, -9.550792001759732E+07, 4.702902330617836E+08, -1.049047532668804E+08,
2460336.500000000, A.D. 2024-Jan-27 00:00:00.0000, -1.053751919240827E+08, 4.681658362487838E+08, -1.060280170212310E+08,
2460343.500000000, A.D. 2024-Feb-03 00:00:00.0000, -1.151992991918577E+08, 4.658499378235149E+08, -1.071079001333992E+08,
2460350.500000000, A.D. 2024-Feb-10 00:00:00.0000, -1.249762955752064E+08, 4.633437638775905E+08, -1.081440246344762E+08,
2460357.500000000, A.D. 2024-Feb-17 00:00:00.0000, -1.347022684346635E+08, 4.606486242169647E+08, -1.091360338478179E+08,
2460364.500000000, A.D. 2024-Feb-24 00:00:00.0000, -1.443733407861618E+08, 4.577659110730941E+08, -1.100835924701101E+08,
2460371.500000000, A.D. 2024-Mar-02 00:00:00.0000, -1.539856732837981E+08, 4.546970976621061E+08, -1.109863866455756E+08,
2460378.500000000, A.D. 2024-Mar-09 00:00:00.0000, -1.635354659956266E+08, 4.514437365312639E+08, -1.118441240514010E+08,
2460385.500000000, A.D. 2024-Mar-16 00:00:00.0000, -1.730189595756865E+08, 4.480074578921120E+08, -1.126565340146928E+08,
2460392.500000000, A.D. 2024-Mar-23 00:00:00.0000, -1.824324359347984E+08, 4.443899690518507E+08, -1.134233675612319E+08,
2460399.500000000, A.D. 2024-Mar-30 00:00:00.0000, -1.917722206498611E+08, 4.405930549193373E+08, -1.141443971933604E+08,
2460406.500000000, A.D. 2024-Apr-06 00:00:00.0000, -2.010346868531029E+08, 4.366185762199042E+08, -1.148194166955390E+08,
2460413.500000000, A.D. 2024-Apr-13 00:00:00.0000, -2.102162570493559E+08, 4.324684662560294E+08, -1.154482412243041E+08,
2460420.500000000, A.D. 2024-Apr-20 00:00:00.0000, -2.193134038139724E+08, 4.281447288935047E+08, -1.160307073773325E+08,
2460427.500000000, A.D. 2024-Apr-27 00:00:00.0000, -2.283226508874268E+08, 4.236494372151417E+08, -1.165666731491628E+08,
2460434.500000000, A.D. 2024-May-04 00:00:00.0000, -2.372405745774997E+08, 4.189847321410094E+08, -1.170560178392741E+08,
2460441.500000000, A.D. 2024-May-11 00:00:00.0000, -2.460638052300557E+08, 4.141528209157047E+08, -1.174986419428131E+08,
2460448.500000000, A.D. 2024-May-18 00:00:00.0000, -2.547890286860662E+08, 4.091559754868360E+08, -1.178944670299365E+08,
2460455.500000000, A.D. 2024-May-25 00:00:00.0000, -2.634129876999215E+08, 4.039965307703263E+08, -1.182434356168802E+08,
2460462.500000000, A.D. 2024-Jun-01 00:00:00.0000, -2.719324832590315E+08, 3.986768827478661E+08, -1.185455110392039E+08,
2460469.500000000, A.D. 2024-Jun-08 00:00:00.0000, -2.803443755582916E+08, 3.931994863762919E+08, -1.188006773519419E+08,
2460476.500000000, A.D. 2024-Jun-15 00:00:00.0000, -2.886455842300198E+08, 3.875668538566604E+08, -1.190089392490492E+08,
2460483.500000000, A.D. 2024-Jun-22 00:00:00.0000, -2.968330888350627E+08, 3.817815544412099E+08, -1.191703218144901E+08,
2460490.500000000, A.D. 2024-Jun-29 00:00:00.0000, -3.049039317365186E+08, 3.758462139611043E+08, -1.192848700599028E+08,
2460497.500000000, A.D. 2024-Jul-06 00:00:00.0000, -3.128552207092258E+08, 3.697635116060334E+08, -1.193526486929074E+08,
2460504.500000000, A.D. 2024-Jul-13 00:00:00.0000, -3.206841293352112E+08, 3.635361767801005E+08, -1.193737420630945E+08,
2460511.500000000, A.D. 2024-Jul-20 00:00:00.0000, -3.283878971719066E+08, 3.571669871842591E+08, -1.193482540099486E+08,
2460518.500000000, A.D. 2024-Jul-27 00:00:00.0000, -3.359638303498552E+08, 3.506587671678799E+08, -1.192763076314132E+08,
2460525.500000000, A.D. 2024-Aug-03 00:00:00.0000, -3.434093023279020E+08, 3.440143859761816E+08, -1.191580450292296E+08,
2460532.500000000, A.D. 2024-Aug-10 00:00:00.0000, -3.507217546415316E+08, 3.372367558911831E+08, -1.189936270475368E+08,
2460539.500000000, A.D. 2024-Aug-17 00:00:00.0000, -3.578986975984097E+08, 3.303288302906695E+08, -1.187832330085211E+08,
2460546.500000000, A.D. 2024-Aug-24 00:00:00.0000, -3.649377108942596E+08, 3.232936016058896E+08, -1.185270604506545E+08,
2460553.500000000, A.D. 2024-Aug-31 00:00:00.0000, -3.718364440340558E+08, 3.161340991192317E+08, -1.182253248860596E+08,
2460560.500000000, A.D. 2024-Sep-07 00:00:00.0000, -3.785926161934890E+08, 3.088533867304854E+08, -1.178782596008289E+08,
2460567.500000000, A.D. 2024-Sep-14 00:00:00.0000, -3.852040154361583E+08, 3.014545616893030E+08, -1.174861154252618E+08,
2460574.500000000, A.D. 2024-Sep-21 00:00:00.0000, -3.916684993167489E+08, 2.939407547082682E+08, -1.170491602550526E+08,
2460581.500000000, A.D. 2024-Sep-28 00:00:00.0000, -3.979839973588312E+08, 2.863151282314588E+08, -1.165676785434498E+08,
2460588.500000000, A.D. 2024-Oct-05 00:00:00.0000, -4.041485117372473E+08, 2.785808728616708E+08, -1.160419711007540E+08,
2460595.500000000, A.D. 2024-Oct-12 00:00:00.0000, -4.101601165264524E+08, 2.707412049265296E+08, -1.154723549244060E+08,
2460602.500000000, A.D. 2024-Oct-19 00:00:00.0000, -4.160169572679253E+08, 2.627993649139655E+08, -1.148591629220893E+08,
2460609.500000000, A.D. 2024-Oct-26 00:00:00.0000, -4.217172508905107E+08, 2.547586159777133E+08, -1.142027435911662E+08,
2460616.500000000, A.D. 2024-Nov-02 00:00:00.0000, -4.272592857272427E+08, 2.466222423660893E+08, -1.135034606905421E+08,
2460623.500000000, A.D. 2024-Nov-09 00:00:00.0000, -4.326414215329808E+08, 2.383935477960799E+08, -1.127616929123916E+08,
2460630.500000000, A.D. 2024-Nov-16 00:00:00.0000, -4.378620894780103E+08, 2.300758537742678E+08, -1.119778335563926E+08,
2460637.500000000, A.D. 2024-Nov-23 00:00:00.0000, -4.429197920717849E+08, 2.216724978159287E+08, -1.111522902151500E+08,
2460644.500000000, A.D. 2024-Nov-30 00:00:00.0000, -4.478131028096218E+08, 2.131868315207961E+08, -1.102854844936572E+08,
2460651.500000000, A.D. 2024-Dec-07 00:00:00.0000, -4.525406651239694E+08, 2.046222189270605E+08, -1.093778517670747E+08,
2460658.500000000, A.D. 2024-Dec-14 00:00:00.0000, -4.571011913301721E+08, 1.959820363682195E+08, -1.084298408138546E+08,
2460665.500000000, A.D. 2024-Dec-21 00:00:00.0000, -4.614934638873649E+08, 1.872696725928597E+08, -1.074419132135313E+08,
2460672.500000000, A.D. 2024-Dec-28 00:00:00.0000, -4.657163370037509E+08, 1.784885261817072E+08, -1.064145429331276E+08,
2460679.500000000, A.D. 2025-Jan-04 00:00:00.0000, -4.697687359891168E+08, 1.696420026389886E+08, -1.053482161457802E+08,
2460686.500000000, A.D. 2025-Jan-11 00:00:00.0000, -4.736496561766569E+08, 1.607335128174713E+08, -1.042434309785877E+08,
2460693.500000000, A.D. 2025-Jan-18 00:00:00.0000, -4.773581623331800E+08, 1.517664717585578E+08, -1.031006971811166E+08,
2460700.500000000, A.D. 2025-Jan-25 00:00:00.0000, -4.808933883160405E+08, 1.427442974737494E+08, -1.019205357760794E+08,
2460707.500000000, A.D. 2025-Feb-01 00:00:00.0000, -4.842545367886170E+08, 1.336704096380352E+08, -1.007034787121355E+08,
2460714.500000000, A.D. 2025-Feb-08 00:00:00.0000, -4.874408789372022E+08, 1.245482282153288E+08, -9.945006852261287E+07,
2460721.500000000, A.D. 2025-Feb-15 00:00:00.0000, -4.904517541618227E+08, 1.153811719963666E+08, -9.816085799452588E+07,
$$EOE